{"type": "FeatureCollection", "features": [ {"type": "Feature", "properties": {"norad_id": 28659, "name": "DIRECTV 8", "group": "intelsat", "lat": 0.018929327329346664, "lon": 77.51940472075361, "alt_km": 35798.398154746865, "timestamp": "2025-12-14T07:33:19.145723+00:00", "meta": {"OBJECT_NAME": "DIRECTV 8", "OBJECT_ID": "2005-019A", "EPOCH": "2025-12-13T12:06:25.165152", "MEAN_MOTION": 1.00272038, "ECCENTRICITY": 0.00029822, "INCLINATION": 0.0234, "RA_OF_ASC_NODE": 67.8675, "ARG_OF_PERICENTER": 199.8413, "MEAN_ANOMALY": 237.289, "EPHEMERIS_TYPE": 0, "CLASSIFICATION_TYPE": "U", "NORAD_CAT_ID": 28659, "ELEMENT_SET_NO": 999, "REV_AT_EPOCH": 7521, "BSTAR": 0, "MEAN_MOTION_DOT": 1.6e-07, "MEAN_MOTION_DDOT": 0}, "tle": {"line1": "1 28659U 05019A   25347.50445793  .00000016  00000+0  00000+0 0  9998", "line2": "2 28659   0.0234  67.8675 0002982 199.8413 237.2890  1.00272038 75215"}}, "geometry": {"type": "Point", "coordinates": [77.51940472075361, 0.018929327329346664]}}, {"type": "Feature", "properties": {"norad_id": 28702, "name": "GALAXY 28 (G-28)", "group": "intelsat", "lat": 1.2798409996998796, "lon": 107.82963773128951, "alt_km": 35797.12803473439, "timestamp": "2025-12-14T07:33:19.145735+00:00", "meta": {"OBJECT_NAME": "GALAXY 28 (G-28)", "OBJECT_ID": "2005-022A", "EPOCH": "2025-12-13T14:44:20.851872", "MEAN_MOTION": 1.00271629, "ECCENTRICITY": 0.00028245, "INCLINATION": 2.8211, "RA_OF_ASC_NODE": 81.2718, "ARG_OF_PERICENTER": 185.1769, "MEAN_ANOMALY": 308.4942, "EPHEMERIS_TYPE": 0, "CLASSIFICATION_TYPE": "U", "NORAD_CAT_ID": 28702, "ELEMENT_SET_NO": 999, "REV_AT_EPOCH": 5011, "BSTAR": 0, "MEAN_MOTION_DOT": -1.73e-06, "MEAN_MOTION_DDOT": 0}, "tle": {"line1": "1 28702U 05022A   25347.61413023 -.00000173  00000+0  00000+0 0  9999", "line2": "2 28702   2.8211  81.2718 0002824 185.1769 308.4942  1.00271629 50110"}}, "geometry": {"type": "Point", "coordinates": [107.82963773128951, 1.2798409996998796]}}, {"type": "Feature", "properties": {"norad_id": 29236, "name": "GALAXY 16 (G-16)", "group": "intelsat", "lat": 0.015029734897879064, "lon": 97.53333207536419, "alt_km": 35796.62924058211, "timestamp": "2025-12-14T07:33:19.145747+00:00", "meta": {"OBJECT_NAME": "GALAXY 16 (G-16)", "OBJECT_ID": "2006-023A", "EPOCH": "2025-12-13T14:41:28.627296", "MEAN_MOTION": 1.0027046, "ECCENTRICITY": 0.00024598, "INCLINATION": 0.0209, "RA_OF_ASC_NODE": 83.844, "ARG_OF_PERICENTER": 181.1275, "MEAN_ANOMALY": 298.9274, "EPHEMERIS_TYPE": 0, "CLASSIFICATION_TYPE": "U", "NORAD_CAT_ID": 29236, "ELEMENT_SET_NO": 999, "REV_AT_EPOCH": 7111, "BSTAR": 0, "MEAN_MOTION_DOT": 0, "MEAN_MOTION_DDOT": 0}, "tle": {"line1": "1 29236U 06023A   25347.61213689  .00000000  00000+0  00000+0 0  9998", "line2": "2 29236   0.0209  83.8440 0002459 181.1275 298.9274  1.00270460 71118"}}, "geometry": {"type": "Point", "coordinates": [97.53333207536419, 0.015029734897879064]}}, {"type": "Feature", "properties": {"norad_id": 29494, "name": "DIRECTV 9S", "group": "intelsat", "lat": 0.4277308076154415, "lon": 95.33331666711283, "alt_km": 35798.346769532225, "timestamp": "2025-12-14T07:33:19.145759+00:00", "meta": {"OBJECT_NAME": "DIRECTV 9S", "OBJECT_ID": "2006-043A", "EPOCH": "2025-12-13T14:40:51.186720", "MEAN_MOTION": 1.00271913, "ECCENTRICITY": 0.00029549, "INCLINATION": 1.9426, "RA_OF_ASC_NODE": 83.2025, "ARG_OF_PERICENTER": 182.9215, "MEAN_ANOMALY": 295.4192, "EPHEMERIS_TYPE": 0, "CLASSIFICATION_TYPE": "U", "NORAD_CAT_ID": 29494, "ELEMENT_SET_NO": 999, "REV_AT_EPOCH": 4952, "BSTAR": 0, "MEAN_MOTION_DOT": -9.8e-07, "MEAN_MOTION_DDOT": 0}, "tle": {"line1": "1 29494U 06043A   25347.61170355 -.00000098  00000+0  00000+0 0  9996", "line2": "2 29494   1.9426  83.2025 0002954 182.9215 295.4192  1.00271913 49526"}}, "geometry": {"type": "Point", "coordinates": [95.33331666711283, 0.4277308076154415]}}, {"type": "Feature", "properties": {"norad_id": 31307, "name": "GALAXY 17 (G-17)", "group": "intelsat", "lat": 1.2394498029283367, "lon": 111.51025713100418, "alt_km": 35803.33265481647, "timestamp": "2025-12-14T07:33:19.145771+00:00", "meta": {"OBJECT_NAME": "GALAXY 17 (G-17)", "OBJECT_ID": "2007-016B", "EPOCH": "2025-12-13T13:02:45.580704", "MEAN_MOTION": 1.00272407, "ECCENTRICITY": 0.00057594, "INCLINATION": 2.5023, "RA_OF_ASC_NODE": 82.2769, "ARG_OF_PERICENTER": 165.1562, "MEAN_ANOMALY": 305.7517, "EPHEMERIS_TYPE": 0, "CLASSIFICATION_TYPE": "U", "NORAD_CAT_ID": 31307, "ELEMENT_SET_NO": 999, "REV_AT_EPOCH": 6794, "BSTAR": 0, "MEAN_MOTION_DOT": -1.92e-06, "MEAN_MOTION_DDOT": 0}, "tle": {"line1": "1 31307U 07016B   25347.54358311 -.00000192  00000+0  00000+0 0  9990", "line2": "2 31307   2.5023  82.2769 0005759 165.1562 305.7517  1.00272407 67941"}}, "geometry": {"type": "Point", "coordinates": [111.51025713100418, 1.2394498029283367]}}, {"type": "Feature", "properties": {"norad_id": 31862, "name": "DIRECTV 10", "group": "intelsat", "lat": -0.005094544512120017, "lon": 93.76437379006708, "alt_km": 35786.98176156818, "timestamp": "2025-12-14T07:33:19.145783+00:00", "meta": {"OBJECT_NAME": "DIRECTV 10", "OBJECT_ID": "2007-032A", "EPOCH": "2025-12-12T23:15:53.301024", "MEAN_MOTION": 1.0027112, "ECCENTRICITY": 2.941e-05, "INCLINATION": 0.0079, "RA_OF_ASC_NODE": 209.5146, "ARG_OF_PERICENTER": 8.2783, "MEAN_ANOMALY": 110.3026, "EPHEMERIS_TYPE": 0, "CLASSIFICATION_TYPE": "U", "NORAD_CAT_ID": 31862, "ELEMENT_SET_NO": 999, "REV_AT_EPOCH": 4372, "BSTAR": 0, "MEAN_MOTION_DOT": -9e-07, "MEAN_MOTION_DDOT": 0}, "tle": {"line1": "1 31862U 07032A   25346.96936691 -.00000090  00000+0  00000+0 0  9999", "line2": "2 31862   0.0079 209.5146 0000294   8.2783 110.3026  1.00271120 43721"}}, "geometry": {"type": "Point", "coordinates": [93.76437379006708, -0.005094544512120017]}}, {"type": "Feature", "properties": {"norad_id": 32253, "name": "INTELSAT 11 (IS-11)", "group": "intelsat", "lat": -1.3134726822124323, "lon": 55.35175411872014, "alt_km": 36169.268564258826, "timestamp": "2025-12-14T07:33:19.145795+00:00", "meta": {"OBJECT_NAME": "INTELSAT 11 (IS-11)", "OBJECT_ID": "2007-044B", "EPOCH": "2025-12-13T14:30:14.702976", "MEAN_MOTION": 0.99049073, "ECCENTRICITY": 0.00088133, "INCLINATION": 3.0826, "RA_OF_ASC_NODE": 80.9675, "ARG_OF_PERICENTER": 166.3126, "MEAN_ANOMALY": 274.6831, "EPHEMERIS_TYPE": 0, "CLASSIFICATION_TYPE": "U", "NORAD_CAT_ID": 32253, "ELEMENT_SET_NO": 999, "REV_AT_EPOCH": 6661, "BSTAR": 0, "MEAN_MOTION_DOT": 7.5e-07, "MEAN_MOTION_DDOT": 0}, "tle": {"line1": "1 32253U 07044B   25347.60433684  .00000075  00000+0  00000+0 0  9995", "line2": "2 32253   3.0826  80.9675 0008813 166.3126 274.6831  0.99049073 66617"}}, "geometry": {"type": "Point", "coordinates": [55.35175411872014, -1.3134726822124323]}}, {"type": "Feature", "properties": {"norad_id": 32388, "name": "HORIZONS-2", "group": "intelsat", "lat": 1.3719156293826456, "lon": 122.70000526409372, "alt_km": 35804.55160349197, "timestamp": "2025-12-14T07:33:19.145808+00:00", "meta": {"OBJECT_NAME": "HORIZONS-2", "OBJECT_ID": "2007-063B", "EPOCH": "2025-12-13T13:05:52.781856", "MEAN_MOTION": 1.00269665, "ECCENTRICITY": 0.00048599, "INCLINATION": 2.1237, "RA_OF_ASC_NODE": 82.9531, "ARG_OF_PERICENTER": 190.8803, "MEAN_ANOMALY": 291.3082, "EPHEMERIS_TYPE": 0, "CLASSIFICATION_TYPE": "U", "NORAD_CAT_ID": 32388, "ELEMENT_SET_NO": 999, "REV_AT_EPOCH": 6595, "BSTAR": 0, "MEAN_MOTION_DOT": -2.39e-06, "MEAN_MOTION_DDOT": 0}, "tle": {"line1": "1 32388U 07063B   25347.54574979 -.00000239  00000+0  00000+0 0  9994", "line2": "2 32388   2.1237  82.9531 0004859 190.8803 291.3082  1.00269665 65959"}}, "geometry": {"type": "Point", "coordinates": [122.70000526409372, 1.3719156293826456]}}, {"type": "Feature", "properties": {"norad_id": 32729, "name": "DIRECTV 11", "group": "intelsat", "lat": 0.0022744008631658628, "lon": 97.38306254454345, "alt_km": 35785.30270705178, "timestamp": "2025-12-14T07:33:19.145820+00:00", "meta": {"OBJECT_NAME": "DIRECTV 11", "OBJECT_ID": "2008-013A", "EPOCH": "2025-12-13T11:59:49.943040", "MEAN_MOTION": 1.00277282, "ECCENTRICITY": 3.64e-05, "INCLINATION": 0.023, "RA_OF_ASC_NODE": 162.1011, "ARG_OF_PERICENTER": 53.9112, "MEAN_ANOMALY": 307.1925, "EPHEMERIS_TYPE": 0, "CLASSIFICATION_TYPE": "U", "NORAD_CAT_ID": 32729, "ELEMENT_SET_NO": 999, "REV_AT_EPOCH": 4373, "BSTAR": 0, "MEAN_MOTION_DOT": -1.12e-06, "MEAN_MOTION_DDOT": 0}, "tle": {"line1": "1 32729U 08013A   25347.49988360 -.00000112  00000+0  00000+0 0  9996", "line2": "2 32729   0.0230 162.1011 0000364  53.9112 307.1925  1.00277282 43739"}}, "geometry": {"type": "Point", "coordinates": [97.38306254454345, 0.0022744008631658628]}}, {"type": "Feature", "properties": {"norad_id": 32951, "name": "GALAXY 18 (G-18)", "group": "intelsat", "lat": 0.03682190222781218, "lon": 73.55554244541182, "alt_km": 35798.12345114591, "timestamp": "2025-12-14T07:33:19.145832+00:00", "meta": {"OBJECT_NAME": "GALAXY 18 (G-18)", "OBJECT_ID": "2008-024A", "EPOCH": "2025-12-13T12:59:53.744928", "MEAN_MOTION": 1.00271876, "ECCENTRICITY": 0.0002944, "INCLINATION": 0.0176, "RA_OF_ASC_NODE": 330.5245, "ARG_OF_PERICENTER": 296.6133, "MEAN_ANOMALY": 247.3005, "EPHEMERIS_TYPE": 0, "CLASSIFICATION_TYPE": "U", "NORAD_CAT_ID": 32951, "ELEMENT_SET_NO": 999, "REV_AT_EPOCH": 4399, "BSTAR": 0, "MEAN_MOTION_DOT": 4e-07, "MEAN_MOTION_DDOT": 0}, "tle": {"line1": "1 32951U 08024A   25347.54159427  .00000040  00000+0  00000+0 0  9994", "line2": "2 32951   0.0176 330.5245 0002944 296.6133 247.3005  1.00271876 43995"}}, "geometry": {"type": "Point", "coordinates": [73.55554244541182, 0.03682190222781218]}}]}